ONEWEB-0291             
1 49081U 21075G   25334.74206653 -.00000034  00000+0 -12094-3 0  9994
2 49081  87.9135  45.3105 0001352  98.5092 261.6193 13.17648306207476
ONEWEB-0293             
1 49082U 21075H   25334.76737662 -.00000056  00000+0 -17837-3 0  9990
2 49082  87.9121  45.3267 0001703  97.0588 263.0738 13.17648567207509
ONEWEB-0294             
1 49083U 21075J   25334.65537630 -.00000284  00000+0 -82506-3 0  9990
2 49083  87.8958  30.0949 0001635  83.3710 276.7604 13.12443899208537
ONEWEB-0295             
1 49084U 21075K   25334.76652580 -.00000036  00000+0 -12532-3 0  9992
2 49084  87.9125  45.3320 0001416 101.6948 258.4342 13.17646091207462
ONEWEB-0296             
1 49085U 21075L   25334.71215234 -.00000256  00000+0 -74658-3 0  9990
2 49085  87.8953  30.0885 0001332  92.2064 267.9217 13.12442003208547
ONEWEB-0297             
1 49086U 21075M   25334.66674253 -.00000050  00000+0 -17386-3 0  9992
2 49086  87.8944  30.1301 0001711 100.9267 259.2054 13.12443456209148
ONEWEB-0298             
1 49087U 21075N   25334.61901753 -.00000068  00000+0 -20748-3 0  9991
2 49087  87.9120  45.3579 0001809 102.7277 257.4057 13.17648236207475
ONEWEB-0299             
1 49088U 21075P   25334.62056994 -.00000042  00000+0 -14242-3 0  9995
2 49088  87.9130  45.3182 0001597 105.5188 254.6120 13.17648572207454
